STARLINK-34738          
1 64951U 25158V   25250.25001157 -.01735899  00000+0 -92173-1 0  9997
2 64951  97.6122 113.2773 0001674  96.6956 280.6550 15.18998786  5921
STARLINK-34744          
1 64952U 25158W   25250.25001157 -.00034717  00000+0 -13876-2 0  9992
2 64952  97.6018 113.2095 0001717  83.0740 138.7130 15.25203375  5975
STARLINK-34701          
1 64953U 25158X   25250.25001157 -.01956839  00000+0 -87510-1 0  9997
2 64953  97.6036 113.2588 0001580  73.0574 242.5693 15.24663722  5978
STARLINK-34761          
1 64954U 25158Y   25250.25001157 -.01769710  00000+0 -10712+0 0  9996
2 64954  97.6153 113.1865 0002509  83.2184  86.3424 15.13917715  5976
STARLINK-34732          
1 64955U 25158Z   25250.25001157 -.01725875  00000+0 -95411-1 0  9992
2 64955  97.6066 113.2545 0001873 101.9534 223.2698 15.17582771  5638
STARLINK-34617          
1 65015U 25161A   25249.77254227  .00083370  00000+0  20697-2 0  9996
2 65015  53.1610  70.4489 0000543 306.3507  53.7447 15.39647233  6046
STARLINK-34627          
1 65016U 25161B   25250.20836998  .00069803  00000+0  17379-2 0  9996
2 65016  53.1599  68.1911 0001149  89.4722 270.6415 15.39642156  7324
STARLINK-34549          
1 65017U 25161C   25250.11559491  .00050636  00000+0  12669-2 0  9998
2 65017  53.1593  68.3211 0001346  38.8185 321.2917 15.39633024  7317
STARLINK-34623          
1 65018U 25161D   25249.97657378  .00062087  00000+0  15481-2 0  9992
2 65018  53.1610  69.5890 0001207  92.8782 267.2361 15.39648798  7173
STARLINK-34232          
1 65019U 25161E   25249.82816958  .00073269  00000+0  18220-2 0  9996
2 65019  53.1610  70.0844 0000699  54.2238 305.8832 15.39655233  7266
STARLINK-34772          
1 65020U 25161F   25250.19908108  .00071498  00000+0  17790-2 0  9992
2 65020  53.1599  68.1311 0001063  70.2250 289.8870 15.39649993  7325
STARLINK-34778          
1 65021U 25161G   25250.23159114  .00076940  00000+0  19137-2 0  9997
2 65021  53.1617  68.3366 0001204  61.7540 298.3587 15.39626710  7202
STARLINK-34789          
1 65022U 25161H   25250.22230126  .00064377  00000+0  16058-2 0  9990
2 65022  53.1619  68.2772 0000734  66.3428 293.7654 15.39620237  7200
STARLINK-34858          
1 65023U 25161J   25250.21301228  .00074499  00000+0  18523-2 0  9997
2 65023  53.1613  68.2191 0000861  65.5480 294.5615 15.39652819  7207
STARLINK-34773          
1 65024U 25161K   25250.19443993  .00060953  00000+0  15210-2 0  9991
2 65024  53.1597  68.1000 0000745  73.8738 286.2349 15.39633548  7206
STARLINK-34727          
1 65025U 25161L   25249.80030689  .00038367  00000+0  96347-3 0  9997
2 65025  53.1595  69.9058 0000826  76.9766 283.1331 15.39646928  7171
