[{"OBJECT_NAME":"STARLINK-34738","OBJECT_ID":"2025-158V","EPOCH":"2025-09-07T06:00:00.999648","MEAN_MOTION":15.18998786,"ECCENTRICITY":0.00016742,"INCLINATION":97.6122,"RA_OF_ASC_NODE":113.2773,"ARG_OF_PERICENTER":96.6956,"MEAN_ANOMALY":280.655,"EPHEMERIS_TYPE":0,"CLASSIFICATION_TYPE":"U","NORAD_CAT_ID":64951,"ELEMENT_SET_NO":999,"REV_AT_EPOCH":592,"BSTAR":-0.092173119,"MEAN_MOTION_DOT":-0.01735899,"MEAN_MOTION_DDOT":0},{"OBJECT_NAME":"STARLINK-34744","OBJECT_ID":"2025-158W","EPOCH":"2025-09-07T06:00:00.999648","MEAN_MOTION":15.25203375,"ECCENTRICITY":0.00017176,"INCLINATION":97.6018,"RA_OF_ASC_NODE":113.2095,"ARG_OF_PERICENTER":83.074,"MEAN_ANOMALY":138.713,"EPHEMERIS_TYPE":0,"CLASSIFICATION_TYPE":"U","NORAD_CAT_ID":64952,"ELEMENT_SET_NO":999,"REV_AT_EPOCH":597,"BSTAR":-0.0013875953,"MEAN_MOTION_DOT":-0.00034717,"MEAN_MOTION_DDOT":0},{"OBJECT_NAME":"STARLINK-34701","OBJECT_ID":"2025-158X","EPOCH":"2025-09-07T06:00:00.999648","MEAN_MOTION":15.24663722,"ECCENTRICITY":0.00015809,"INCLINATION":97.6036,"RA_OF_ASC_NODE":113.2588,"ARG_OF_PERICENTER":73.0574,"MEAN_ANOMALY":242.5693,"EPHEMERIS_TYPE":0,"CLASSIFICATION_TYPE":"U","NORAD_CAT_ID":64953,"ELEMENT_SET_NO":999,"REV_AT_EPOCH":597,"BSTAR":-0.087509585,"MEAN_MOTION_DOT":-0.01956839,"MEAN_MOTION_DDOT":0},{"OBJECT_NAME":"STARLINK-34761","OBJECT_ID":"2025-158Y","EPOCH":"2025-09-07T06:00:00.999648","MEAN_MOTION":15.13917715,"ECCENTRICITY":0.00025092,"INCLINATION":97.6153,"RA_OF_ASC_NODE":113.1865,"ARG_OF_PERICENTER":83.2184,"MEAN_ANOMALY":86.3424,"EPHEMERIS_TYPE":0,"CLASSIFICATION_TYPE":"U","NORAD_CAT_ID":64954,"ELEMENT_SET_NO":999,"REV_AT_EPOCH":597,"BSTAR":-0.10711535,"MEAN_MOTION_DOT":-0.0176971,"MEAN_MOTION_DDOT":0},{"OBJECT_NAME":"STARLINK-34732","OBJECT_ID":"2025-158Z","EPOCH":"2025-09-07T06:00:00.999648","MEAN_MOTION":15.17582771,"ECCENTRICITY":0.00018739,"INCLINATION":97.6066,"RA_OF_ASC_NODE":113.2545,"ARG_OF_PERICENTER":101.9534,"MEAN_ANOMALY":223.2698,"EPHEMERIS_TYPE":0,"CLASSIFICATION_TYPE":"U","NORAD_CAT_ID":64955,"ELEMENT_SET_NO":999,"REV_AT_EPOCH":563,"BSTAR":-0.095410619,"MEAN_MOTION_DOT":-0.01725875,"MEAN_MOTION_DDOT":0},{"OBJECT_NAME":"STARLINK-34617","OBJECT_ID":"2025-161A","EPOCH":"2025-09-06T18:32:27.652128","MEAN_MOTION":15.39647233,"ECCENTRICITY":5.435e-5,"INCLINATION":53.161,"RA_OF_ASC_NODE":70.4489,"ARG_OF_PERICENTER":306.3507,"MEAN_ANOMALY":53.7447,"EPHEMERIS_TYPE":0,"CLASSIFICATION_TYPE":"U","NORAD_CAT_ID":65015,"ELEMENT_SET_NO":999,"REV_AT_EPOCH":604,"BSTAR":0.0020696589,"MEAN_MOTION_DOT":0.0008337,"MEAN_MOTION_DDOT":0},{"OBJECT_NAME":"STARLINK-34627","OBJECT_ID":"2025-161B","EPOCH":"2025-09-07T05:00:03.166272","MEAN_MOTION":15.39642156,"ECCENTRICITY":0.0001149,"INCLINATION":53.1599,"RA_OF_ASC_NODE":68.1911,"ARG_OF_PERICENTER":89.4722,"MEAN_ANOMALY":270.6415,"EPHEMERIS_TYPE":0,"CLASSIFICATION_TYPE":"U","NORAD_CAT_ID":65016,"ELEMENT_SET_NO":999,"REV_AT_EPOCH":732,"BSTAR":0.0017378537,"MEAN_MOTION_DOT":0.00069803,"MEAN_MOTION_DDOT":0},{"OBJECT_NAME":"STARLINK-34549","OBJECT_ID":"2025-161C","EPOCH":"2025-09-07T02:46:27.400224","MEAN_MOTION":15.39633024,"ECCENTRICITY":0.00013461,"INCLINATION":53.1593,"RA_OF_ASC_NODE":68.3211,"ARG_OF_PERICENTER":38.8185,"MEAN_ANOMALY":321.2917,"EPHEMERIS_TYPE":0,"CLASSIFICATION_TYPE":"U","NORAD_CAT_ID":65017,"ELEMENT_SET_NO":999,"REV_AT_EPOCH":731,"BSTAR":0.0012669339,"MEAN_MOTION_DOT":0.00050636,"MEAN_MOTION_DDOT":0},{"OBJECT_NAME":"STARLINK-34623","OBJECT_ID":"2025-161D","EPOCH":"2025-09-06T23:26:15.974592","MEAN_MOTION":15.39648798,"ECCENTRICITY":0.00012076,"INCLINATION":53.161,"RA_OF_ASC_NODE":69.589,"ARG_OF_PERICENTER":92.8782,"MEAN_ANOMALY":267.2361,"EPHEMERIS_TYPE":0,"CLASSIFICATION_TYPE":"U","NORAD_CAT_ID":65018,"ELEMENT_SET_NO":999,"REV_AT_EPOCH":717,"BSTAR":0.0015480918,"MEAN_MOTION_DOT":0.00062087,"MEAN_MOTION_DDOT":0},{"OBJECT_NAME":"STARLINK-34232","OBJECT_ID":"2025-161E","EPOCH":"2025-09-06T19:52:33.851712","MEAN_MOTION":15.39655233,"ECCENTRICITY":6.994e-5,"INCLINATION":53.161,"RA_OF_ASC_NODE":70.0844,"ARG_OF_PERICENTER":54.2238,"MEAN_ANOMALY":305.8832,"EPHEMERIS_TYPE":0,"CLASSIFICATION_TYPE":"U","NORAD_CAT_ID":65019,"ELEMENT_SET_NO":999,"REV_AT_EPOCH":726,"BSTAR":0.0018220407,"MEAN_MOTION_DOT":0.00073269,"MEAN_MOTION_DDOT":0},{"OBJECT_NAME":"STARLINK-34772","OBJECT_ID":"2025-161F","EPOCH":"2025-09-07T04:46:40.605312","MEAN_MOTION":15.39649993,"ECCENTRICITY":0.00010636,"INCLINATION":53.1599,"RA_OF_ASC_NODE":68.1311,"ARG_OF_PERICENTER":70.225,"MEAN_ANOMALY":289.887,"EPHEMERIS_TYPE":0,"CLASSIFICATION_TYPE":"U","NORAD_CAT_ID":65020,"ELEMENT_SET_NO":999,"REV_AT_EPOCH":732,"BSTAR":0.0017789623,"MEAN_MOTION_DOT":0.00071498,"MEAN_MOTION_DDOT":0},{"OBJECT_NAME":"STARLINK-34778","OBJECT_ID":"2025-161G","EPOCH":"2025-09-07T05:33:29.474496","MEAN_MOTION":15.3962671,"ECCENTRICITY":0.00012046,"INCLINATION":53.1617,"RA_OF_ASC_NODE":68.3366,"ARG_OF_PERICENTER":61.754,"MEAN_ANOMALY":298.3587,"EPHEMERIS_TYPE":0,"CLASSIFICATION_TYPE":"U","NORAD_CAT_ID":65021,"ELEMENT_SET_NO":999,"REV_AT_EPOCH":720,"BSTAR":0.0019137124,"MEAN_MOTION_DOT":0.0007694,"MEAN_MOTION_DDOT":0},{"OBJECT_NAME":"STARLINK-34789","OBJECT_ID":"2025-161H","EPOCH":"2025-09-07T05:20:06.828864","MEAN_MOTION":15.39620237,"ECCENTRICITY":7.341e-5,"INCLINATION":53.1619,"RA_OF_ASC_NODE":68.2772,"ARG_OF_PERICENTER":66.3428,"MEAN_ANOMALY":293.7654,"EPHEMERIS_TYPE":0,"CLASSIFICATION_TYPE":"U","NORAD_CAT_ID":65022,"ELEMENT_SET_NO":999,"REV_AT_EPOCH":720,"BSTAR":0.0016058499,"MEAN_MOTION_DOT":0.00064377,"MEAN_MOTION_DDOT":0},{"OBJECT_NAME":"STARLINK-34858","OBJECT_ID":"2025-161J","EPOCH":"2025-09-07T05:06:44.260992","MEAN_MOTION":15.39652819,"ECCENTRICITY":8.612e-5,"INCLINATION":53.1613,"RA_OF_ASC_NODE":68.2191,"ARG_OF_PERICENTER":65.548,"MEAN_ANOMALY":294.5615,"EPHEMERIS_TYPE":0,"CLASSIFICATION_TYPE":"U","NORAD_CAT_ID":65023,"ELEMENT_SET_NO":999,"REV_AT_EPOCH":720,"BSTAR":0.0018523066,"MEAN_MOTION_DOT":0.00074499,"MEAN_MOTION_DDOT":0},{"OBJECT_NAME":"STARLINK-34773","OBJECT_ID":"2025-161K","EPOCH":"2025-09-07T04:39:59.609952","MEAN_MOTION":15.39633548,"ECCENTRICITY":7.452e-5,"INCLINATION":53.1597,"RA_OF_ASC_NODE":68.1,"ARG_OF_PERICENTER":73.8738,"MEAN_ANOMALY":286.2349,"EPHEMERIS_TYPE":0,"CLASSIFICATION_TYPE":"U","NORAD_CAT_ID":65024,"ELEMENT_SET_NO":999,"REV_AT_EPOCH":720,"BSTAR":0.0015209867,"MEAN_MOTION_DOT":0.00060953,"MEAN_MOTION_DDOT":0},{"OBJECT_NAME":"STARLINK-34727","OBJECT_ID":"2025-161L","EPOCH":"2025-09-06T19:12:26.515296","MEAN_MOTION":15.39646928,"ECCENTRICITY":8.26e-5,"INCLINATION":53.1595,"RA_OF_ASC_NODE":69.9058,"ARG_OF_PERICENTER":76.9766,"MEAN_ANOMALY":283.1331,"EPHEMERIS_TYPE":0,"CLASSIFICATION_TYPE":"U","NORAD_CAT_ID":65025,"ELEMENT_SET_NO":999,"REV_AT_EPOCH":717,"BSTAR":0.00096347183,"MEAN_MOTION_DOT":0.00038367,"MEAN_MOTION_DDOT":0}]
